CONNECTA IOT-3
1 60475U 24149H   25322.65756379  .00009091  00000+0  39571-3 0  9990
2 60475  97.3967  37.2939 0001586 298.4950  61.6127 15.22454570 69761
